[{"OBJECT_NAME":"STARLINK-4709","OBJECT_ID":"2022-111F","EPOCH":"2026-03-08T23:39:51.799680","MEAN_MOTION":15.08839766,"ECCENTRICITY":0.00012293,"INCLINATION":53.2162,"RA_OF_ASC_NODE":282.0081,"ARG_OF_PERICENTER":98.4191,"MEAN_ANOMALY":261.6941,"EPHEMERIS_TYPE":0,"CLASSIFICATION_TYPE":"U","NORAD_CAT_ID":53778,"ELEMENT_SET_NO":999,"REV_AT_EPOCH":19352,"BSTAR":7.1386124e-5,"MEAN_MOTION_DOT":8.48e-6,"MEAN_MOTION_DDOT":0},{"OBJECT_NAME":"UPPER FREE FLYER","OBJECT_ID":"2018-099F","EPOCH":"2026-03-09T16:53:56.769792","MEAN_MOTION":15.10728091,"ECCENTRICITY":0.00115819,"INCLINATION":97.4495,"RA_OF_ASC_NODE":120.4613,"ARG_OF_PERICENTER":289.4209,"MEAN_ANOMALY":70.5769,"EPHEMERIS_TYPE":0,"CLASSIFICATION_TYPE":"U","NORAD_CAT_ID":43763,"ELEMENT_SET_NO":999,"REV_AT_EPOCH":39752,"BSTAR":0.00029221901,"MEAN_MOTION_DOT":4.788e-5,"MEAN_MOTION_DDOT":0}]
